1 43013U 17073A   26094.27348635  .00000137  00000+0  86007-4 0  9993
2 43013  98.7724  34.4110 0002033 103.1408 256.9995 14.19543143433985
